ONEWEB-0407             
1 50487U 21132U   25189.62304399  .00001728  00000+0  43505-2 0  9990
2 50487  87.9128  43.7074 0001878  90.2764 269.8583 13.18676330176281
ONEWEB-0409             
1 50488U 21132V   25189.68915386 -.00000114  00000+0 -35726-3 0  9998
2 50488  87.8831  89.5065 0001722  68.3187 291.8124 13.11417395170561
ONEWEB-0412             
1 50489U 21132W   25189.83914992  .00000108  00000+0  24105-3 0  9998
2 50489  87.9126  43.6776 0001910  97.0193 263.1156 13.18686252176408
ONEWEB-0413             
1 50490U 21132X   25189.84410331  .00000742  00000+0  18499-2 0  9991
2 50490  87.9131  43.6909 0002018  94.6925 265.4438 13.18673473176342
ONEWEB-0414             
1 50491U 21132Y   25189.82923945 -.00000144  00000+0 -39914-3 0  9994
2 50491  87.9127  43.6552 0001742  93.4843 266.6489 13.18686422176371
ONEWEB-0417             
1 50492U 21132Z   25189.83746970 -.00000048  00000+0 -15362-3 0  9991
2 50492  87.9131  43.6840 0001683  82.7940 277.3383 13.18684878176353
ONEWEB-0418             
1 50493U 21132AA  25189.84723870  .00000487  00000+0  12019-2 0  9997
2 50493  87.9126  43.6691 0001427  80.7093 279.4200 13.18678667176412
ONEWEB-0419             
1 50494U 21132AB  25190.09316523  .00001086  00000+0  27229-2 0  9995
2 50494  87.9120  43.6237 0001687  74.2340 285.8978 13.18680042177654
ONEWEB-0420             
1 50495U 21132AC  25190.13440379  .00000279  00000+0  67551-3 0  9994
2 50495  87.9126  43.6240 0002189  88.5533 271.5850 13.18685092177667
ONEWEB-0421             
1 50496U 21132AD  25189.67253428 -.00000809  00000+0 -20850-2 0  9990
2 50496  87.9124  43.7082 0001724  98.8198 261.3129 13.18689014176344
ONEWEB-0424             
1 50497U 21132AE  25189.86057494  .00001657  00000+0  41712-2 0  9997
2 50497  87.9122  43.6654 0001820  71.9523 288.1807 13.18673627176396
ONEWEB-0426             
1 50498U 21132AF  25190.12448296  .00000239  00000+0  57334-3 0  9996
2 50498  87.9114  43.6076 0001250 105.3324 254.7946 13.18684232177662
ONEWEB-0427             
1 50499U 21132AG  25189.85892294  .00001472  00000+0  37021-2 0  9996
2 50499  87.9121  43.6495 0001568  81.6735 278.4575 13.18675422176368
ONEWEB-0429             
1 50500U 21132AH  25189.84572455 -.00000075  00000+0 -22357-3 0  9999
2 50500  87.9128  43.6800 0001992  86.3210 273.8150 13.18684085176339
ONEWEB-0430             
1 50501U 21132AJ  25189.83420687  .00000993  00000+0  24848-2 0  9991
2 50501  87.9132  43.6764 0001882  78.8126 281.3218 13.18679028176378
ONEWEB-0432             
1 50502U 21132AK  25189.86578504  .00000054  00000+0  10309-3 0  9993
2 50502  87.9119  43.6537 0001546  54.1265 306.0010 13.18686524176330
ONEWEB-0440             
1 50503U 21132AL  25189.85398225  .00001088  00000+0  27281-2 0  9997
2 50503  87.9125  43.6609 0001931  96.8221 263.3131 13.18679248176324
ONEWEB-0450             
1 50504U 21132AM  25189.61988867  .00001932  00000+0  48686-2 0  9999
2 50504  87.9126  43.7350 0002255  85.6994 274.4396 13.18675488176321
TIANHUI 4A              
1 50572U 21134A   25190.16210413  .00004165  00000+0  10119-3 0  9995
2 50572  88.9766  11.0677 0008902   1.6606 358.4678 15.40690988196956
TIANHUI 4B              
1 50573U 21134B   25190.16243674  .00004200  00000+0  10206-3 0  9998
2 50573  88.9764  11.0596 0008715   7.2520 352.8861 15.40691281196920
TJS-9                   
1 50574U 21135A   25189.89983792 -.00000284  00000+0  00000+0 0  9996
2 50574   0.0091 292.0132 0005814  88.8551   7.3640  1.00269937 12982
STARLINK-3323           
1 50804U 22001B   25189.66052114 -.00000725  00000+0 -27484-4 0  9996
2 50804  53.2166 174.6084 0001275  93.0357 267.0781 15.08827173193707
STARLINK-3333           
1 50805U 22001C   25190.18674762 -.00000236  00000+0  32500-5 0  9997
2 50805  53.2168 172.2482 0001233  86.7347 273.3786 15.08831845195054
STARLINK-3335           
1 50806U 22001D   25189.65314346 -.00000254  00000+0  21295-5 0  9996
2 50806  53.2165 174.6430 0001109  76.7716 283.3399 15.08834796193701
STARLINK-3355           
1 50808U 22001F   25189.38083838  .00003360  00000+0  22917-3 0  9997
2 50808  53.2165 175.8675 0001311  73.6932 286.4205 15.08823826193665
STARLINK-3232           
1 50809U 22001G   25190.24564955 -.00002547  00000+0 -14208-3 0  9991
2 50809  53.2160 171.9848 0001216  83.1351 276.9780 15.08813980195074
STARLINK-3338           
1 50812U 22001K   25190.20516811  .00000552  00000+0  52759-4 0  9995
2 50812  53.2166 172.2704 0001303  60.1222 299.9899 15.08831522195032
STARLINK-3349           
1 50813U 22001L   25190.19065532  .00020862  00000+0  10074-2 0  9991
2 50813  53.2114 165.5715 0004286 303.3894  56.6692 15.18635066195139
STARLINK-3324           
1 50814U 22001M   25189.67797969 -.00000300  00000+0 -78255-6 0  9995
2 50814  53.2157 184.5268 0001274  61.8497 298.2623 15.08840722193570
STARLINK-3234           
1 50815U 22001N   25190.15270564 -.00000280  00000+0  48831-6 0  9991
2 50815  53.2166 182.3996 0001262  82.0967 278.0168 15.08835411194917
STARLINK-3342           
1 50816U 22001P   25190.25573987 -.00000262  00000+0  16240-5 0  9996
2 50816  53.2162 181.9400 0001252  83.1017 277.0117 15.08841036194931
STARLINK-3341           
1 50817U 22001Q   25190.14902707 -.00000235  00000+0  33384-5 0  9999
2 50817  53.2168 182.4173 0001271  88.9893 271.1244 15.08833082194890
STARLINK-3336           
1 50818U 22001R   25190.19686575 -.00001286  00000+0 -62712-4 0  9991
2 50818  53.2164 182.2031 0001233  80.0178 280.0953 15.08832780194929
STARLINK-3327           
1 50819U 22001S   25190.13798739 -.00000617  00000+0 -20700-4 0  9990
2 50819  53.2171 182.4696 0001278  85.6730 274.4408 15.08831150194844
STARLINK-3339           
1 50820U 22001T   25190.25206284 -.00000540  00000+0 -15856-4 0  9995
2 50820  53.2164 181.9565 0001156  80.1037 280.0085 15.08837224194934
STARLINK-3346           
1 50821U 22001U   25189.69637228  .00000243  00000+0  33375-4 0  9992
2 50821  53.2167 184.3341 0001202  79.2162 280.8966 15.08835662193576
STARLINK-3343           
1 50822U 22001V   25190.24470296 -.00000355  00000+0 -42200-5 0  9990
2 50822  53.2163 181.9896 0001305  83.4492 276.6649 15.08839320194902
STARLINK-3334           
1 50823U 22001W   25189.68166402  .00000483  00000+0  48439-4 0  9997
2 50823  53.2157 184.5143 0001299  83.0242 277.0898 15.08836926193573
STARLINK-3332           
1 50825U 22001Y   25190.24838245 -.00000495  00000+0 -13013-4 0  9999
2 50825  53.2163 181.9728 0001111  74.1246 285.9868 15.08838159194925
STARLINK-3329           
1 50827U 22001AA  25190.19318364 -.00000918  00000+0 -39599-4 0  9997
2 50827  53.2158 182.2202 0001248  83.4556 276.6578 15.08833902194915
STARLINK-3290           
1 50828U 22001AB  25189.71572825 -.00000300  00000+0 -78941-6 0  9999
2 50828  53.2161 184.2538 0001222  81.4705 278.6425 15.08836576193428
STARLINK-3294           
1 50829U 22001AC  25190.20054504 -.00000467  00000+0 -11249-4 0  9995
2 50829  53.2161 182.1854 0001261  91.3909 268.7228 15.08833970194917
STARLINK-3278           
1 50830U 22001AD  25190.15178192 -.00000484  00000+0 -12350-4 0  9994
2 50830  53.2153 192.4058 0001292  70.0076 290.1055 15.08836636194776
STARLINK-3299           
1 50831U 22001AE  25190.16375213 -.00003079  00000+0 -17547-3 0  9994
2 50831  53.2160 182.4187 0001318  89.1015 271.0128 15.08833650194918
STARLINK-3328           
1 50832U 22001AF  25190.15274504 -.00000328  00000+0 -25082-5 0  9994
2 50832  53.2159 192.4489 0001225  82.9058 277.2073 15.08836947194759
STARLINK-3331           
1 50834U 22001AH  25189.73962301 -.00000063  00000+0  14097-4 0  9995
2 50834  53.2162 194.2641 0001019  68.6838 291.4263 15.08839792193437
STARLINK-3310           
1 50835U 22001AJ  25190.00827857 -.00000213  00000+0  46754-5 0  9997
2 50835  53.2162 193.1655 0001159  77.8642 282.2480 15.08836538194739
STARLINK-3330           
1 50836U 22001AK  25190.18583583  .00000183  00000+0  29598-4 0  9993
2 50836  53.2170 192.0328 0001144  80.0746 280.0375 15.08836962194762
STARLINK-3318           
1 50837U 22001AL  25190.23366362 -.00000044  00000+0  15352-4 0  9994
2 50837  53.2165 182.0380 0001249  81.4632 278.6502 15.08837687194859
STARLINK-3322           
1 50838U 22001AM  25189.16884535  .00069878  00000+0  11197-2 0  9992
2 50838  53.1889 142.3039 0001281 351.1702   8.9286 15.52482270195322
STARLINK-3320           
1 50839U 22001AN  25190.18490524 -.00000242  00000+0  28986-5 0  9996
2 50839  53.2171 192.2589 0001192  82.2636 277.8492 15.08836884194770
STARLINK-3295           
1 50840U 22001AP  25189.38634513 -.00000681  00000+0 -24700-4 0  9993
2 50840  53.2163 195.8406 0001203  83.9688 276.1441 15.08834775193376
STARLINK-3300           
1 50841U 22001AQ  25189.72858509 -.00000055  00000+0  14645-4 0  9996
2 50841  53.2167 194.3061 0001187  78.0435 282.0691 15.08835318193432
STARLINK-3302           
1 50842U 22001AR  25189.71386534 -.00000094  00000+0  12159-4 0  9991
2 50842  53.2165 194.3707 0001013  60.9902 299.1191 15.08835079193422
STARLINK-3325           
1 50843U 22001AS  25190.19962485 -.00000169  00000+0  74410-5 0  9993
2 50843  53.2163 192.1910 0001197  79.4696 280.6431 15.08837157194704
STARLINK-3326           
1 50844U 22001AT  25190.16650664 -.00000723  00000+0 -27341-4 0  9991
2 50844  53.2159 192.3386 0001322  74.2176 285.8962 15.08843656194780
STARLINK-3230           
1 50845U 22001AU  25189.74698256 -.00000285  00000+0  19133-6 0  9997
2 50845  53.2159 194.2238 0001002  76.3146 283.7958 15.08839267193440
STARLINK-3308           
1 50846U 22001AV  25189.71019852 -.00000569  00000+0 -17658-4 0  9998
2 50846  53.2160 194.5012 0001119  69.1323 290.9789 15.08836500193430
STARLINK-3315           
1 50848U 22001AX  25190.15915211  .00000836  00000+0  70620-4 0  9997
2 50848  53.2157 192.3717 0001129  77.6358 282.4760 15.08838444194816
